NORAD_CAT_ID,OBJECT_NAME,OBJECT_TYPE,EPOCH,MEAN_MOTION,ECCENTRICITY,INCLINATION,RA_OF_ASC_NODE,ARG_OF_PERICENTER,MEAN_ANOMALY,BSTAR,MEAN_MOTION_DOT,MEAN_MOTION_DDOT,TLE_LINE0,TLE_LINE1,TLE_LINE2,SEMIMAJOR_AXIS,PERIOD,APOGEE,PERIGEE,DECAYED
52704.0,STARLINK-3999,PAYLOAD,2024-01-15 08:10:36,15.08845754,0.0001823,53.2189,55.2054,111.4798,248.6389,6.4039e-05,7.31e-06,0.0,0 STARLINK-3999,1 52704U 22053BA  24015.34069631  .00000731  00000-0  64039-4 0  9991,2 52704  53.2189  55.2054 0001823 111.4798 248.6389 15.08845754 92473,6917.863,95.437,540.989,538.467,0.0
52704.0,STARLINK-3999,PAYLOAD,2024-01-16 03:15:14,15.08834728,0.0001618,53.218,51.6315,97.5782,262.5394,-9.5248e-06,-4.4e-06,0.0,0 STARLINK-3999,1 52704U 22053BA  24016.13558698 -.00000440  00000-0 -95248-5 0  9991,2 52704  53.2180  51.6315 0001618  97.5782 262.5394 15.08834728 92596,6917.897,95.438,540.881,538.642,0.0
52704.0,STARLINK-3999,PAYLOAD,2024-01-16 09:36:47,15.08838778,0.0001599,53.2182,50.4409,93.1152,267.0023,1.5741e-05,-3.8e-07,0.0,0 STARLINK-3999,1 52704U 22053BA  24016.40054415 -.00000038  00000-0  15741-4 0  9990,2 52704  53.2182  50.4409 0001599  93.1152 267.0023 15.08838778 93061,6917.884,95.438,540.855,538.643,0.0
52704.0,STARLINK-3999,PAYLOAD,2024-01-17 09:27:34,15.08841146,0.0001493,53.2175,45.9828,77.4029,282.713,7.1897e-05,8.56e-06,0.0,0 STARLINK-3999,1 52704U 22053BA  24017.39414392  .00000856  00000-0  71897-4 0  9994,2 52704  53.2175  45.9828 0001493  77.4029 282.7130 15.08841146 92782,6917.877,95.437,540.775,538.709,0.0
52704.0,STARLINK-3999,PAYLOAD,2024-01-18 01:21:27,15.08821845,0.000142,53.217,43.0089,87.6314,272.484,-4.8763e-05,-1.063e-05,0.0,0 STARLINK-3999,1 52704U 22053BA  24018.05656545 -.00001063  00000-0 -48763-4 0  9995,2 52704  53.2170  43.0089 0001420  87.6314 272.4840 15.08821845 92884,6917.936,95.439,540.783,538.819,0.0
52704.0,STARLINK-3999,PAYLOAD,2024-01-18 10:53:45,15.08830467,0.0001445,53.2172,41.2244,93.2458,266.8699,3.1547e-05,2.14e-06,0.0,0 STARLINK-3999,1 52704U 22053BA  24018.45400162  .00000214  00000-0  31547-4 0  9998,2 52704  53.2172  41.2244 0001445  93.2458 266.8699 15.08830467 92944,6917.91,95.438,540.774,538.775,0.0
52704.0,STARLINK-3999,PAYLOAD,2024-01-18 23:36:50,15.08841454,0.0002002,53.2187,38.8512,44.3309,315.7843,0.00015419,2.167e-05,0.0,0 STARLINK-3999,1 52704U 22053BA  24018.98391506  .00002167  00000-0  15419-3 0  9995,2 52704  53.2187  38.8512 0002002  44.3309 315.7843 15.08841454 93025,6917.876,95.437,541.126,538.356,0.0
52704.0,STARLINK-3999,PAYLOAD,2024-01-19 07:33:44,15.08863669,0.0001462,53.2172,37.3585,82.9398,277.1761,0.00028126,4.194e-05,0.0,0 STARLINK-3999,1 52704U 22053BA  24019.31509559  .00004194  00000-0  28126-3 0  9993,2 52704  53.2172  37.3585 0001462  82.9398 277.1761 15.08863669 93075,6917.808,95.436,540.684,538.662,0.0
52704.0,STARLINK-3999,PAYLOAD,2024-01-20 04:13:46,15.08842201,0.0001171,53.2169,33.49,78.6053,281.507,0.00024156,3.559e-05,0.0,0 STARLINK-3999,1 52704U 22053BA  24020.17623346  .00003559  00000-0  24156-3 0  9993,2 52704  53.2169  33.4900 0001171  78.6053 281.5070 15.08842201 93202,6917.874,95.437,540.549,538.929,0.0
52704.0,STARLINK-3999,PAYLOAD,2024-01-20 07:24:32,15.08844531,0.0001228,53.2166,32.8973,88.5092,271.6041,0.00021488,3.134e-05,0.0,0 STARLINK-3999,1 52704U 22053BA  24020.30871097  .00003134  00000-0  21488-3 0  9990,2 52704  53.2166  32.8973 0001228  88.5092 271.6041 15.08844531 93653,6917.867,95.437,540.581,538.882,0.0
52704.0,STARLINK-3999,PAYLOAD,2024-01-21 05:39:56,15.08850385,0.0001378,53.2176,28.7352,110.8249,249.2891,-7.7519e-05,-1.522e-05,0.0,0 STARLINK-3999,1 52704U 22053BA  24021.23606773 -.00001522  00000-0 -77519-4 0  9998,2 52704  53.2176  28.7352 0001378 110.8249 249.2891 15.08850385 93791,6917.849,95.437,540.667,538.76,0.0
52704.0,STARLINK-3999,PAYLOAD,2024-01-21 10:26:05,15.08852536,0.0001327,53.2172,27.8407,103.7777,256.3363,-5.7288e-05,-1.2e-05,0.0,0 STARLINK-3999,1 52704U 22053BA  24021.43478407 -.00001200  00000-0 -57288-4 0  9995,2 52704  53.2172  27.8407 0001327 103.7777 256.3363 15.08852536 93398,6917.842,95.437,540.625,538.789,0.0
52704.0,STARLINK-3999,PAYLOAD,2024-01-21 23:09:10,15.08837595,0.0001128,53.2181,25.4662,96.6289,263.4831,7.1789e-05,8.55e-06,0.0,0 STARLINK-3999,1 52704U 22053BA  24021.96471028  .00000855  00000-0  71789-4 0  9990,2 52704  53.2181  25.4662 0001128  96.6289 263.4831 15.08837595 93906,6917.888,95.438,540.533,538.972,0.0
52704.0,STARLINK-3999,PAYLOAD,2024-01-22 03:55:20,15.08837552,0.0001179,53.2181,24.5726,79.2403,280.8722,4.7858e-05,4.74e-06,0.0,0 STARLINK-3999,1 52704U 22053BA  24022.16343165  .00000474  00000-0  47858-4 0  9990,2 52704  53.2181  24.5726 0001179  79.2403 280.8722 15.08837552 93509,6917.888,95.438,540.568,538.937,0.0
52704.0,STARLINK-3999,PAYLOAD,2024-01-22 05:30:43,15.08837795,0.0001207,53.218,24.2752,106.9049,253.2076,8.4832e-05,1.062e-05,0.0,0 STARLINK-3999,1 52704U 22053BA  24022.22967036  .00001062  00000-0  84832-4 0  9993,2 52704  53.2180  24.2752 0001207 106.9049 253.2076 15.08837795 93943,6917.887,95.438,540.587,538.917,0.0
52704.0,STARLINK-3999,PAYLOAD,2024-01-23 05:21:30,15.08842374,0.0001222,53.2176,19.8142,84.5008,275.6123,0.00012249,1.662e-05,0.0,0 STARLINK-3999,1 52704U 22053BA  24023.22326936  .00001662  00000-0  12249-3 0  9990,2 52704  53.2176  19.8142 0001222  84.5008 275.6123 15.08842374 93663,6917.873,95.437,540.583,538.893,0.0
52704.0,STARLINK-3999,PAYLOAD,2024-01-24 03:36:53,15.08851631,0.0001273,53.2178,15.6512,80.7862,279.3274,0.00018452,2.651e-05,0.0,0 STARLINK-3999,1 52704U 22053BA  24024.15061932  .00002651  00000-0  18452-3 0  9996,2 52704  53.2178  15.6512 0001273  80.7862 279.3274 15.08851631 93802,6917.845,95.437,540.59,538.829,0.0
52704.0,STARLINK-3999,PAYLOAD,2024-01-24 06:47:38,15.08879939,0.000141,53.2172,15.0566,102.1239,257.9912,0.00059605,9.221e-05,0.0,0 STARLINK-3999,1 52704U 22053BA  24024.28308734  .00009221  00000-0  59605-3 0  9999,2 52704  53.2172  15.0566 0001410 102.1239 257.9912 15.08879939 93823,6917.758,95.435,540.599,538.648,0.0
52704.0,STARLINK-3999,PAYLOAD,2024-01-25 03:27:41,15.08831113,0.00015,53.2186,11.1919,83.527,276.5893,-0.00025609,-4.36e-05,0.0,0 STARLINK-3999,1 52704U 22053BA  24025.14422461 -.00004360  00000-0 -25609-3 0  9997,2 52704  53.2186  11.1919 0001500  83.5270 276.5893 15.08831113 93955,6917.908,95.438,540.81,538.735,0.0
52704.0,STARLINK-3999,PAYLOAD,2024-01-25 05:03:04,15.08832266,0.0001695,53.2178,10.8929,63.8217,296.295,-0.00022573,-3.878e-05,0.0,0 STARLINK-3999,1 52704U 22053BA  24025.21046534 -.00003878  00000-0 -22573-3 0  9998,2 52704  53.2178  10.8929 0001695  63.8217 296.2950 15.08832266 94392,6917.904,95.438,540.942,538.596,0.0
52704.0,STARLINK-3999,PAYLOAD,2024-01-26 03:18:27,15.0884468,0.0001591,53.2166,6.736,123.3459,236.7686,-0.00026423,-4.491e-05,0.0,0 STARLINK-3999,1 52704U 22053BA  24026.13782089 -.00004491  00000-0 -26423-3 0  9992,2 52704  53.2166   6.7360 0001591 123.3459 236.7686 15.08844680 94104,6917.866,95.437,540.832,538.63,0.0
52704.0,STARLINK-3999,PAYLOAD,2024-01-26 04:53:50,15.08845055,0.0001464,53.2167,6.4384,112.4293,247.6855,-0.00022486,-3.865e-05,0.0,0 STARLINK-3999,1 52704U 22053BA  24026.20406154 -.00003865  00000-0 -22486-3 0  9995,2 52704  53.2167   6.4384 0001464 112.4293 247.6855 15.08845055 94546,6917.865,95.437,540.743,538.717,0.0
52704.0,STARLINK-3999,PAYLOAD,2024-01-27 03:09:15,15.08837333,0.000159,53.2177,2.2628,75.3525,284.7643,0.00036133,5.467e-05,0.0,0 STARLINK-3999,1 52704U 22053BA  24027.13143279  .00005467  00000-0  36133-3 0  9996,2 52704  53.2177   2.2628 0001590  75.3525 284.7643 15.08837333 94252,6917.889,95.438,540.853,538.654,0.0
52704.0,STARLINK-3999,PAYLOAD,2024-01-27 07:55:25,15.08847405,0.000161,53.2174,1.3733,75.9056,284.2115,0.00053108,8.176e-05,0.0,0 STARLINK-3999,1 52704U 22053BA  24027.33015140  .00008176  00000-0  53108-3 0  9994,2 52704  53.2174   1.3733 0001610  75.9056 284.2115 15.08847405 94715,6917.858,95.437,540.837,538.609,0.0
52704.0,STARLINK-3999,PAYLOAD,2024-01-28 04:35:25,15.08844372,0.0001466,53.218,357.5022,92.3767,267.7393,0.00021348,3.112e-05,0.0,0 STARLINK-3999,1 52704U 22053BA  24028.19127114  .00003112  00000-0  21348-3 0  9990,2 52704  53.2180 357.5022 0001466  92.3767 267.7393 15.08844372 94411,6917.867,95.437,540.746,538.718,0.0
52704.0,STARLINK-3999,PAYLOAD,2024-01-28 07:46:12,15.08841075,0.0001645,53.2181,356.9117,102.7532,257.3644,0.00010614,1.402e-05,0.0,0 STARLINK-3999,1 52704U 22053BA  24028.32375224  .00001402  00000-0  10614-3 0  9996,2 52704  53.2181 356.9117 0001645 102.7532 257.3644 15.08841075 94865,6917.877,95.437,540.88,538.604,0.0
52704.0,STARLINK-3999,PAYLOAD,2024-01-29 02:50:49,15.08843233,0.000178,53.2188,353.3435,115.8613,244.2563,4.0243e-05,3.52e-06,0.0,0 STARLINK-3999,1 52704U 22053BA  24029.11863154  .00000352  00000-0  40243-4 0  9993,2 52704  53.2188 353.3435 0001780 115.8613 244.2563 15.08843233 94550,6917.871,95.437,540.967,538.504,0.0
52704.0,STARLINK-3999,PAYLOAD,2024-01-30 04:17:00,15.08842752,0.0001615,53.2188,348.5881,102.0066,258.1107,0.00014363,1.999e-05,0.0,0 STARLINK-3999,1 52704U 22053BA  24030.17847295  .00001999  00000-0  14363-3 0  9990,2 52704  53.2188 348.5881 0001615 102.0066 258.1107 15.08842752 94719,6917.872,95.437,540.854,538.62,0.0
52704.0,STARLINK-3999,PAYLOAD,2024-01-30 05:52:23,15.08845717,0.0001566,53.219,348.2913,94.6194,265.4977,0.00017695,2.53e-05,0.0,0 STARLINK-3999,1 52704U 22053BA  24030.24471185  .00002530  00000-0  17695-3 0  9992,2 52704  53.2190 348.2913 0001566  94.6194 265.4977 15.08845717 95157,6917.863,95.437,540.811,538.645,0.0
52704.0,STARLINK-3999,PAYLOAD,2024-01-31 04:07:47,15.08837375,0.0001654,53.219,344.1351,80.0591,280.0588,4.6709e-05,4.55e-06,0.0,0 STARLINK-3999,1 52704U 22053BA  24031.17207923  .00000455  00000-0  46709-4 0  9995,2 52704  53.2190 344.1351 0001654  80.0591 280.0588 15.08837375 94865,6917.888,95.438,540.898,538.609,0.0
